ONEWEB-0156             
1 48052U 21025L   25075.90024339  .00000175  00000+0  44370-3 0  9991
2 48052  87.8919  51.0941 0001747  83.0952 277.0376 13.13470076193545
ONEWEB-0161             
1 48053U 21025M   25075.95102103 -.00000283  00000+0 -81058-3 0  9999
2 48053  87.8924  51.0987 0001704  80.5443 279.5879 13.13465770193485
ONEWEB-0158             
1 48054U 21025N   25075.91039792  .00000422  00000+0  11212-2 0  9996
2 48054  87.8920  51.0893 0001817  88.7220 271.4117 13.13472081193609
ONEWEB-0157             
1 48055U 21025P   25075.93578048  .00000071  00000+0  16060-3 0  9998
2 48055  87.8920  51.0966 0001505  73.2704 286.8590 13.13468683193542
ONEWEB-0162             
1 48056U 21025Q   25075.89939426  .00000157  00000+0  39484-3 0  9995
2 48056  87.8916  51.0959 0001843  85.1143 275.0196 13.13466905193518
ONEWEB-0155             
1 48057U 21025R   25075.91888492  .00000432  00000+0  11480-2 0  9996
2 48057  87.8919  51.1063 0001927  78.5707 281.5638 13.13471057193656
ONEWEB-0149             
1 48058U 21025S   25075.94086419 -.00000109  00000+0 -33271-3 0  9995
2 48058  87.8920  51.0971 0001747  91.3762 268.7567 13.13467628193466
ONEWEB-0148             
1 48059U 21025T   25075.90363844  .00000208  00000+0  53339-3 0  9997
2 48059  87.8923  51.1239 0001294  98.8064 261.3212 13.13472627193586
ONEWEB-0160             
1 48060U 21025U   25075.92057982  .00000385  00000+0  10187-2 0  9993
2 48060  87.8923  51.1175 0002697  93.0396 267.1042 13.13470206193531
ONEWEB-0163             
1 48061U 21025V   25075.90531920  .00000297  00000+0  77748-3 0  9990
2 48061  87.8921  51.1046 0001674  77.2543 282.8773 13.13471401193655
ONEWEB-0159             
1 48062U 21025W   25075.97306180  .00000073  00000+0  16467-3 0  9999
2 48062  87.8918  51.0732 0001638  83.3286 276.8029 13.13468262193585
ONEWEB-0164             
1 48063U 21025X   25075.95441742 -.00000275  00000+0 -78892-3 0  9998
2 48063  87.8919  51.0871 0001976  81.4424 278.6929 13.13469808193563
ONEWEB-0167             
1 48064U 21025Y   25075.90613535  .00000271  00000+0  70750-3 0  9994
2 48064  87.8930  51.1164 0001948  58.2470 301.8849 13.13447163193543
ONEWEB-0166             
1 48065U 21025Z   25075.92902029  .00000206  00000+0  52961-3 0  9998
2 48065  87.8917  51.0807 0001706  87.8903 272.2421 13.13469305193621
ONEWEB-0151             
1 48066U 21025AA  25075.93070433  .00000171  00000+0  43255-3 0  9992
2 48066  87.8920  51.1005 0001942  79.6005 280.5343 13.13469453193563
ONEWEB-0170             
1 48067U 21025AB  25075.93916306 -.00000083  00000+0 -26210-3 0  9997
2 48067  87.8924  51.1034 0002420  80.3883 279.7519 13.13469013193528
ONEWEB-0168             
1 48068U 21025AC  25075.92394024  .00000280  00000+0  73263-3 0  9991
2 48068  87.8923  51.0838 0001858  82.4068 277.7272 13.13471336193537
ONEWEB-0173             
1 48069U 21025AD  25075.91547809  .00000400  00000+0  10602-2 0  9993
2 48069  87.8923  51.0942 0001750  69.6918 290.4399 13.13469778193771
ONEWEB-0171             
1 48070U 21025AE  25075.95271063 -.00000572  00000+0 -16008-2 0  9993
2 48070  87.8924  51.1239 0001963  81.2783 278.8568 13.13469958193598
ONEWEB-0172             
1 48071U 21025AF  25075.93239754  .00000103  00000+0  24806-3 0  9997
2 48071  87.8924  51.0945 0001909  77.7032 282.4311 13.13468848194482
ONEWEB-0174             
1 48072U 21025AG  25075.91379437  .00000372  00000+0  98342-3 0  9993
2 48072  87.8923  51.1118 0001782  85.2757 274.8576 13.13471920193800
ONEWEB-0175             
1 48073U 21025AH  25075.94426537 -.00000203  00000+0 -59033-3 0  9990
2 48073  87.8918  51.0788 0002176  78.7780 281.3593 13.13466747193463
ONEWEB-0177             
1 48074U 21025AJ  25075.95609024 -.00000619  00000+0 -17290-2 0  9995
2 48074  87.8919  51.0881 0001639  79.3377 280.7936 13.13470322193650
ONEWEB-0178             
1 48075U 21025AK  25075.89868454  .00000142  00000+0  35281-3 0  9993
2 48075  87.8924  51.1369 0001764  77.9123 282.2204 13.13473512193694
ONEWEB-0108             
1 48076U 21025AL  25075.93407407  .00000085  00000+0  19891-3 0  9991
2 48076  87.8918  51.0885 0001906  91.0731 269.0617 13.13469183193623
ONEWEB-0169             
1 48077U 21025AM  25075.96625223 -.00000126  00000+0 -38058-3 0  9997
2 48077  87.8922  51.0992 0001928  91.3985 268.7365 13.13467745192285
ONEWEB-0176             
1 48210U 21031A   25075.86333247 -.00000123  00000+0 -36753-3 0  9991
2 48210  87.9077  20.6327 0001908  79.6014 280.5331 13.14505035188231
ONEWEB-0184             
1 48211U 21031B   25075.91250642  .00000250  00000+0  64088-3 0  9996
2 48211  87.9073  20.5972 0002464  61.7285 298.4094 13.14504372188218
ONEWEB-0179             
1 48212U 21031C   25075.88279954 -.00024484  00000+0 -66501-1 0  9997
2 48212  87.9081  20.6161 0001686  78.6344 281.4975 13.14246350188250
ONEWEB-0180             
1 48213U 21031D   25075.91567903  .00000297  00000+0  76596-3 0  9997
2 48213  87.9075  20.6004 0001847  71.7794 288.3537 13.14502554188141
ONEWEB-0218             
1 48214U 21031E   25075.86175650 -.00000120  00000+0 -35922-3 0  9991
2 48214  87.9074  20.6120 0002313  54.4014 305.7331 13.14501453188291
ONEWEB-0209             
1 48215U 21031F   25075.85064187  .00000115  00000+0  27627-3 0  9998
2 48215  87.9076  20.6548 0001696  77.6039 282.5280 13.14505686188292
ONEWEB-0198             
1 48216U 21031G   25075.91090278  .00000286  00000+0  73792-3 0  9999
2 48216  87.9074  20.6454 0001850  67.7729 292.3597 13.14500908188411
ONEWEB-0189             
1 48217U 21031H   25075.92358510  .00000312  00000+0  80659-3 0  9997
2 48217  87.9076  20.6173 0001798  66.1681 293.9637 13.14506354188157
ONEWEB-0196             
1 48218U 21031J   25075.90141335 -.00001749  00000+0 -47537-2 0  9995
2 48218  87.9077  20.6307 0001731  77.7008 282.4316 13.14484210188159
ONEWEB-0183             
1 48219U 21031K   25075.87602461 -.00000110  00000+0 -33030-3 0  9999
2 48219  87.9074  20.6494 0001763  83.4774 276.6557 13.14502642188245
ONEWEB-0185             
1 48220U 21031L   25075.90218978  .00000237  00000+0  60526-3 0  9999
2 48220  87.9074  20.6144 0001605  76.9366 283.1942 13.14501462188170
ONEWEB-0187             
1 48221U 21031M   25075.87265196 -.00040466  00000+0 -11029+0 0  9990
2 48221  87.9095  20.6573 0001134  64.8640 295.2607 13.14114725188183
ONEWEB-0192             
1 48222U 21031N   25075.85223724  .00000055  00000+0  11492-3 0  9996
2 48222  87.9076  20.6582 0001879  76.2054 283.9284 13.14501131188091
ONEWEB-0219             
1 48223U 21031P   25075.90775065  .00000313  00000+0  80943-3 0  9997
2 48223  87.9075  20.6205 0001682  76.7976 283.3341 13.14504165188305
ONEWEB-0202             
1 48224U 21031Q   25075.88872406  .00000062  00000+0  13377-3 0  9990
2 48224  87.9070  20.6399 0002014  57.4376 302.6948 13.14503872188284
ONEWEB-0204             
1 48225U 21031R   25075.84669759  .00000175  00000+0  43845-3 0  9990
2 48225  87.9075  20.6606 0001786  89.4110 270.7224 13.14502063188178
ONEWEB-0205             
1 48226U 21031S   25075.89821847  .00000273  00000+0  70070-3 0  9993
2 48226  87.9074  20.6217 0001684  78.2861 281.8458 13.14505540188201
ONEWEB-0206             
1 48227U 21031T   25075.87125734 -.00000087  00000+0 -26977-3 0  9996
2 48227  87.9072  20.6097 0001781  79.9866 280.1465 13.14505756188149
ONEWEB-0182             
1 48228U 21031U   25075.86649892 -.00000178  00000+0 -51506-3 0  9999
2 48228  87.9077  20.6492 0001864  84.4853 275.6490 13.14500872188357
ONEWEB-0186             
1 48229U 21031V   25075.87760680 -.00000105  00000+0 -31869-3 0  9990
2 48229  87.9077  20.6093 0001772  77.3537 282.7791 13.14504930188300
ONEWEB-0181             
1 48230U 21031W   25075.85539917 -.00000004  00000+0 -44697-4 0  9999
2 48230  87.9078  20.6848 0001846  74.6549 285.4785 13.14504804188152
ONEWEB-0188             
1 48231U 21031X   25075.89346400  .00000109  00000+0  25966-3 0  9998
2 48231  87.9073  20.6698 0001807  79.8994 280.2340 13.14505142188065
ONEWEB-0220             
1 48232U 21031Y   25075.85700281 -.00000055  00000+0 -18205-3 0  9996
2 48232  87.9070  20.6255 0001545  77.4067 282.7235 13.14503589188328
ONEWEB-0165             
1 48233U 21031Z   25075.88553549  .00000083  00000+0  19075-3 0  9998
2 48233  87.9073  20.6546 0001774  75.7553 284.3774 13.14505315188280
ONEWEB-0199             
1 48234U 21031AA  25075.86967748 -.00000138  00000+0 -40767-3 0  9992
2 48234  87.9074  20.6232 0002032  82.3954 277.7406 13.14505289188188
ONEWEB-0203             
1 48235U 21031AB  25075.86016059 -.00000084  00000+0 -25997-3 0  9991
2 48235  87.9075  20.6273 0002269  76.8152 283.3231 13.14504905188199
ONEWEB-0197             
1 48236U 21031AC  25075.91171847  .00000294  00000+0  75847-3 0  9995
2 48236  87.9076  20.6283 0001720  89.8040 270.3287 13.14502127188116
ONEWEB-0194             
1 48237U 21031AD  25075.89029241  .00000081  00000+0  18390-3 0  9997
2 48237  87.9073  20.6277 0002148  81.1168 279.0205 13.14505413188283
ONEWEB-0193             
1 48238U 21031AE  25075.90616478  .00000286  00000+0  73640-3 0  9990
2 48238  87.9075  20.6326 0001954  75.4546 284.6800 13.14502708188233
ONEWEB-0191             
1 48239U 21031AF  25075.91725628  .00000236  00000+0  60282-3 0  9993
2 48239  87.9074  20.6057 0001890  75.9785 284.1555 13.14504715188099
ONEWEB-0195             
1 48240U 21031AG  25075.89425294  .00000184  00000+0  46060-3 0  9998
2 48240  87.9072  20.6084 0001753  66.4888 293.6426 13.14505556188070
ONEWEB-0201             
1 48241U 21031AH  25075.88293795  .00009337  00000+0  25084-1 0  9997
2 48241  87.9073  20.6539 0001812  77.1525 282.9807 13.14611962188309
ONEWEB-0207             
1 48242U 21031AJ  25075.86253236 -.00000131  00000+0 -38777-3 0  9992
2 48242  87.9076  20.6206 0001700  83.7876 276.3447 13.14504114188219
